[{"OBJECT_NAME":"STARLINK-36265","OBJECT_ID":"2025-304S","EPOCH":"2026-01-23T17:20:15.953568","MEAN_MOTION":15.42785168,"ECCENTRICITY":0.00029997,"INCLINATION":69.9997,"RA_OF_ASC_NODE":291.246,"ARG_OF_PERICENTER":270.4516,"MEAN_ANOMALY":89.6322,"EPHEMERIS_TYPE":0,"CLASSIFICATION_TYPE":"U","NORAD_CAT_ID":67208,"ELEMENT_SET_NO":999,"REV_AT_EPOCH":706,"BSTAR":0.0022833123,"MEAN_MOTION_DOT":0.0010141,"MEAN_MOTION_DDOT":0},{"OBJECT_NAME":"STARLINK-36226","OBJECT_ID":"2025-304T","EPOCH":"2026-01-23T17:08:36.387456","MEAN_MOTION":15.42797884,"ECCENTRICITY":5.981e-5,"INCLINATION":70.0001,"RA_OF_ASC_NODE":291.2201,"ARG_OF_PERICENTER":332.6017,"MEAN_ANOMALY":27.5134,"EPHEMERIS_TYPE":0,"CLASSIFICATION_TYPE":"U","NORAD_CAT_ID":67209,"ELEMENT_SET_NO":999,"REV_AT_EPOCH":706,"BSTAR":0.0026207797,"MEAN_MOTION_DOT":0.00116692,"MEAN_MOTION_DDOT":0},{"OBJECT_NAME":"STARLINK-36173","OBJECT_ID":"2025-304U","EPOCH":"2026-01-23T16:56:39.557760","MEAN_MOTION":15.42755036,"ECCENTRICITY":0.00032452,"INCLINATION":69.9985,"RA_OF_ASC_NODE":291.1897,"ARG_OF_PERICENTER":251.679,"MEAN_ANOMALY":108.4039,"EPHEMERIS_TYPE":0,"CLASSIFICATION_TYPE":"U","NORAD_CAT_ID":67210,"ELEMENT_SET_NO":999,"REV_AT_EPOCH":706,"BSTAR":0.0015389783,"MEAN_MOTION_DOT":0.0006794,"MEAN_MOTION_DDOT":0},{"OBJECT_NAME":"STARLINK-36280","OBJECT_ID":"2025-304V","EPOCH":"2026-01-23T16:50:57.313536","MEAN_MOTION":15.42778611,"ECCENTRICITY":0.00019153,"INCLINATION":69.9992,"RA_OF_ASC_NODE":291.1744,"ARG_OF_PERICENTER":267.5843,"MEAN_ANOMALY":92.512,"EPHEMERIS_TYPE":0,"CLASSIFICATION_TYPE":"U","NORAD_CAT_ID":67211,"ELEMENT_SET_NO":999,"REV_AT_EPOCH":706,"BSTAR":0.0018592075,"MEAN_MOTION_DOT":0.00082318,"MEAN_MOTION_DDOT":0},{"OBJECT_NAME":"STARLINK-36213","OBJECT_ID":"2025-304W","EPOCH":"2026-01-23T22:58:43.970304","MEAN_MOTION":15.42777479,"ECCENTRICITY":0.00039823,"INCLINATION":69.9974,"RA_OF_ASC_NODE":290.4609,"ARG_OF_PERICENTER":269.9399,"MEAN_ANOMALY":90.1327,"EPHEMERIS_TYPE":0,"CLASSIFICATION_TYPE":"U","NORAD_CAT_ID":67212,"ELEMENT_SET_NO":999,"REV_AT_EPOCH":710,"BSTAR":0.0020289381,"MEAN_MOTION_DOT":0.00089948,"MEAN_MOTION_DDOT":0},{"OBJECT_NAME":"STARLINK-36199","OBJECT_ID":"2025-304X","EPOCH":"2026-01-23T16:33:35.080704","MEAN_MOTION":15.42781253,"ECCENTRICITY":0.00036723,"INCLINATION":69.9987,"RA_OF_ASC_NODE":291.1314,"ARG_OF_PERICENTER":257.7724,"MEAN_ANOMALY":102.3047,"EPHEMERIS_TYPE":0,"CLASSIFICATION_TYPE":"U","NORAD_CAT_ID":67213,"ELEMENT_SET_NO":999,"REV_AT_EPOCH":706,"BSTAR":0.0022529557,"MEAN_MOTION_DOT":0.00100035,"MEAN_MOTION_DDOT":0},{"OBJECT_NAME":"STARLINK-36203","OBJECT_ID":"2025-304Y","EPOCH":"2026-01-23T21:07:43.025376","MEAN_MOTION":15.42822197,"ECCENTRICITY":0.00041036,"INCLINATION":70.0008,"RA_OF_ASC_NODE":290.5907,"ARG_OF_PERICENTER":272.0559,"MEAN_ANOMALY":88.0153,"EPHEMERIS_TYPE":0,"CLASSIFICATION_TYPE":"U","NORAD_CAT_ID":67214,"ELEMENT_SET_NO":999,"REV_AT_EPOCH":709,"BSTAR":0.0030615143,"MEAN_MOTION_DOT":0.00136834,"MEAN_MOTION_DDOT":0},{"OBJECT_NAME":"STARLINK-36221","OBJECT_ID":"2025-304Z","EPOCH":"2026-01-24T00:08:45.413952","MEAN_MOTION":15.42722826,"ECCENTRICITY":0.0006,"INCLINATION":69.9999,"RA_OF_ASC_NODE":290.2266,"ARG_OF_PERICENTER":277.4969,"MEAN_ANOMALY":82.5531,"EPHEMERIS_TYPE":0,"CLASSIFICATION_TYPE":"U","NORAD_CAT_ID":67215,"ELEMENT_SET_NO":999,"REV_AT_EPOCH":711,"BSTAR":0.0018938643,"MEAN_MOTION_DOT":0.00083756,"MEAN_MOTION_DDOT":0},{"OBJECT_NAME":"STARLINK-36212","OBJECT_ID":"2025-304AA","EPOCH":"2026-01-24T00:02:47.517504","MEAN_MOTION":15.42758591,"ECCENTRICITY":0.00036498,"INCLINATION":69.999,"RA_OF_ASC_NODE":290.2109,"ARG_OF_PERICENTER":279.0958,"MEAN_ANOMALY":80.9811,"EPHEMERIS_TYPE":0,"CLASSIFICATION_TYPE":"U","NORAD_CAT_ID":67216,"ELEMENT_SET_NO":999,"REV_AT_EPOCH":711,"BSTAR":0.0016818172,"MEAN_MOTION_DOT":0.00074333,"MEAN_MOTION_DDOT":0},{"OBJECT_NAME":"STARLINK-36216","OBJECT_ID":"2025-304AB","EPOCH":"2026-01-23T17:43:36.449184","MEAN_MOTION":15.427654,"ECCENTRICITY":0.00028674,"INCLINATION":70.0016,"RA_OF_ASC_NODE":290.8978,"ARG_OF_PERICENTER":282.4519,"MEAN_ANOMALY":77.6342,"EPHEMERIS_TYPE":0,"CLASSIFICATION_TYPE":"U","NORAD_CAT_ID":67217,"ELEMENT_SET_NO":999,"REV_AT_EPOCH":707,"BSTAR":0.0014725043,"MEAN_MOTION_DOT":0.00064994,"MEAN_MOTION_DDOT":0},{"OBJECT_NAME":"STARLINK-36211","OBJECT_ID":"2025-304AC","EPOCH":"2026-01-23T23:51:07.251552","MEAN_MOTION":15.42718016,"ECCENTRICITY":0.00032038,"INCLINATION":70,"RA_OF_ASC_NODE":290.1823,"ARG_OF_PERICENTER":262.4479,"MEAN_ANOMALY":97.6339,"EPHEMERIS_TYPE":0,"CLASSIFICATION_TYPE":"U","NORAD_CAT_ID":67218,"ELEMENT_SET_NO":999,"REV_AT_EPOCH":708,"BSTAR":0.0018080646,"MEAN_MOTION_DOT":0.00079869,"MEAN_MOTION_DDOT":0},{"OBJECT_NAME":"STARLINK-36490","OBJECT_ID":"2026-002A","EPOCH":"2026-01-23T20:34:02.357472","MEAN_MOTION":15.74562394,"ECCENTRICITY":0.00018494,"INCLINATION":42.9992,"RA_OF_ASC_NODE":221.8296,"ARG_OF_PERICENTER":268.5886,"MEAN_ANOMALY":91.4771,"EPHEMERIS_TYPE":0,"CLASSIFICATION_TYPE":"U","NORAD_CAT_ID":67305,"ELEMENT_SET_NO":999,"REV_AT_EPOCH":424,"BSTAR":-0.0033329863,"MEAN_MOTION_DOT":-0.00474734,"MEAN_MOTION_DDOT":0},{"OBJECT_NAME":"STARLINK-36488","OBJECT_ID":"2026-002B","EPOCH":"2026-01-23T20:33:33.139584","MEAN_MOTION":15.74568663,"ECCENTRICITY":0.00022516,"INCLINATION":42.9995,"RA_OF_ASC_NODE":221.8279,"ARG_OF_PERICENTER":294.2821,"MEAN_ANOMALY":65.7813,"EPHEMERIS_TYPE":0,"CLASSIFICATION_TYPE":"U","NORAD_CAT_ID":67306,"ELEMENT_SET_NO":999,"REV_AT_EPOCH":418,"BSTAR":-0.0034251609,"MEAN_MOTION_DOT":-0.00487325,"MEAN_MOTION_DDOT":0},{"OBJECT_NAME":"STARLINK-36481","OBJECT_ID":"2026-002C","EPOCH":"2026-01-23T22:03:56.207520","MEAN_MOTION":15.74487746,"ECCENTRICITY":0.00018183,"INCLINATION":42.999,"RA_OF_ASC_NODE":221.4382,"ARG_OF_PERICENTER":270.8171,"MEAN_ANOMALY":89.249,"EPHEMERIS_TYPE":0,"CLASSIFICATION_TYPE":"U","NORAD_CAT_ID":67307,"ELEMENT_SET_NO":999,"REV_AT_EPOCH":419,"BSTAR":-0.0025833062,"MEAN_MOTION_DOT":-0.00371319,"MEAN_MOTION_DDOT":0},{"OBJECT_NAME":"STARLINK-36449","OBJECT_ID":"2026-002D","EPOCH":"2026-01-23T22:03:03.326400","MEAN_MOTION":15.78306538,"ECCENTRICITY":0.0018905,"INCLINATION":42.9987,"RA_OF_ASC_NODE":221.4311,"ARG_OF_PERICENTER":339.9995,"MEAN_ANOMALY":20.0133,"EPHEMERIS_TYPE":0,"CLASSIFICATION_TYPE":"U","NORAD_CAT_ID":67308,"ELEMENT_SET_NO":999,"REV_AT_EPOCH":425,"BSTAR":0.038909816,"MEAN_MOTION_DOT":0.08778279,"MEAN_MOTION_DDOT":0},{"OBJECT_NAME":"STARLINK-36482","OBJECT_ID":"2026-002E","EPOCH":"2026-01-23T17:26:58.204320","MEAN_MOTION":15.75031822,"ECCENTRICITY":0.00017587,"INCLINATION":42.9984,"RA_OF_ASC_NODE":222.5758,"ARG_OF_PERICENTER":293.182,"MEAN_ANOMALY":66.8864,"EPHEMERIS_TYPE":0,"CLASSIFICATION_TYPE":"U","NORAD_CAT_ID":67309,"ELEMENT_SET_NO":999,"REV_AT_EPOCH":416,"BSTAR":8.8719622e-5,"MEAN_MOTION_DOT":0.00013168,"MEAN_MOTION_DDOT":0},{"OBJECT_NAME":"STARLINK-36491","OBJECT_ID":"2026-002F","EPOCH":"2026-01-23T22:04:22.243296","MEAN_MOTION":15.75076753,"ECCENTRICITY":0.00023382,"INCLINATION":43,"RA_OF_ASC_NODE":221.4421,"ARG_OF_PERICENTER":281.6938,"MEAN_ANOMALY":78.3669,"EPHEMERIS_TYPE":0,"CLASSIFICATION_TYPE":"U","NORAD_CAT_ID":67310,"ELEMENT_SET_NO":999,"REV_AT_EPOCH":419,"BSTAR":0.0040088194,"MEAN_MOTION_DOT":0.00667697,"MEAN_MOTION_DDOT":0},{"OBJECT_NAME":"STARLINK-36495","OBJECT_ID":"2026-002G","EPOCH":"2026-01-23T22:02:34.853280","MEAN_MOTION":15.78124639,"ECCENTRICITY":0.00185143,"INCLINATION":42.9986,"RA_OF_ASC_NODE":221.4281,"ARG_OF_PERICENTER":345.5236,"MEAN_ANOMALY":14.5102,"EPHEMERIS_TYPE":0,"CLASSIFICATION_TYPE":"U","NORAD_CAT_ID":67311,"ELEMENT_SET_NO":999,"REV_AT_EPOCH":435,"BSTAR":0.036572077,"MEAN_MOTION_DOT":0.08030081,"MEAN_MOTION_DDOT":0},{"OBJECT_NAME":"STARLINK-36485","OBJECT_ID":"2026-002H","EPOCH":"2026-01-23T20:31:07.340448","MEAN_MOTION":15.74534924,"ECCENTRICITY":0.00022385,"INCLINATION":42.999,"RA_OF_ASC_NODE":221.8148,"ARG_OF_PERICENTER":295.492,"MEAN_ANOMALY":64.5717,"EPHEMERIS_TYPE":0,"CLASSIFICATION_TYPE":"U","NORAD_CAT_ID":67312,"ELEMENT_SET_NO":999,"REV_AT_EPOCH":418,"BSTAR":-0.0039427657,"MEAN_MOTION_DOT":-0.00555616,"MEAN_MOTION_DDOT":0},{"OBJECT_NAME":"STARLINK-36445","OBJECT_ID":"2026-002J","EPOCH":"2026-01-23T22:01:59.211552","MEAN_MOTION":15.74512661,"ECCENTRICITY":0.00023225,"INCLINATION":42.9991,"RA_OF_ASC_NODE":221.4278,"ARG_OF_PERICENTER":276.7165,"MEAN_ANOMALY":83.344,"EPHEMERIS_TYPE":0,"CLASSIFICATION_TYPE":"U","NORAD_CAT_ID":67313,"ELEMENT_SET_NO":999,"REV_AT_EPOCH":435,"BSTAR":-0.002359045,"MEAN_MOTION_DOT":-0.00340753,"MEAN_MOTION_DDOT":0},{"OBJECT_NAME":"STARLINK-36476","OBJECT_ID":"2026-002K","EPOCH":"2026-01-23T22:01:06.673440","MEAN_MOTION":15.78331598,"ECCENTRICITY":0.00199749,"INCLINATION":42.9998,"RA_OF_ASC_NODE":221.4195,"ARG_OF_PERICENTER":334.6787,"MEAN_ANOMALY":25.3103,"EPHEMERIS_TYPE":0,"CLASSIFICATION_TYPE":"U","NORAD_CAT_ID":67314,"ELEMENT_SET_NO":999,"REV_AT_EPOCH":418,"BSTAR":0.038677502,"MEAN_MOTION_DOT":0.08731549,"MEAN_MOTION_DDOT":0},{"OBJECT_NAME":"STARLINK-36463","OBJECT_ID":"2026-002L","EPOCH":"2026-01-23T17:26:27.998016","MEAN_MOTION":15.74963332,"ECCENTRICITY":0.00020968,"INCLINATION":42.9973,"RA_OF_ASC_NODE":222.5712,"ARG_OF_PERICENTER":278.4656,"MEAN_ANOMALY":81.5976,"EPHEMERIS_TYPE":0,"CLASSIFICATION_TYPE":"U","NORAD_CAT_ID":67315,"ELEMENT_SET_NO":999,"REV_AT_EPOCH":422,"BSTAR":-0.00041556501,"MEAN_MOTION_DOT":-0.00063628,"MEAN_MOTION_DDOT":0},{"OBJECT_NAME":"STARLINK-36461","OBJECT_ID":"2026-002M","EPOCH":"2026-01-23T21:59:40.329600","MEAN_MOTION":15.76484195,"ECCENTRICITY":0.0010705,"INCLINATION":43.0006,"RA_OF_ASC_NODE":221.4078,"ARG_OF_PERICENTER":335.6593,"MEAN_ANOMALY":24.377,"EPHEMERIS_TYPE":0,"CLASSIFICATION_TYPE":"U","NORAD_CAT_ID":67316,"ELEMENT_SET_NO":999,"REV_AT_EPOCH":435,"BSTAR":0.013539892,"MEAN_MOTION_DOT":0.02534969,"MEAN_MOTION_DDOT":0}]
